[Satellite]
VERSION=1.1
NAME=CZ-6A DEB
NICKNAME=CZ-6A DEB
TLE1=1 54261U 22151C   22342.49302053  .00018314  00000+0  17681-2 0  9999
TLE2=2 54261  98.6511 348.2475 0314238 124.3660 238.7691 14.62373000  3832
STATUS=0
